YAOGAN-39 03A           
1 57986U 23152A   26065.41132036  .00001294  00000+0  55320-4 0  9991
2 57986  35.0006 198.8634 0003912 303.7832  56.2510 15.22956575134768
STARLINK-31096          
1 58592U 23200D   26068.29383499  .00044809  00000+0  18692-2 0  9997
2 58592  43.0024 171.6597 0002152 311.2907  48.7758 15.22976409123542
