[{"OBJECT_NAME":"YAOGAN-39 03A","OBJECT_ID":"2023-152A","EPOCH":"2026-03-06T09:52:18.079104","MEAN_MOTION":15.22956575,"ECCENTRICITY":0.00039122,"INCLINATION":35.0006,"RA_OF_ASC_NODE":198.8634,"ARG_OF_PERICENTER":303.7832,"MEAN_ANOMALY":56.251,"EPHEMERIS_TYPE":0,"CLASSIFICATION_TYPE":"U","NORAD_CAT_ID":57986,"ELEMENT_SET_NO":999,"REV_AT_EPOCH":13476,"BSTAR":5.5320223e-5,"MEAN_MOTION_DOT":1.294e-5,"MEAN_MOTION_DDOT":0},{"OBJECT_NAME":"STARLINK-31096","OBJECT_ID":"2023-200D","EPOCH":"2026-03-09T07:03:07.343136","MEAN_MOTION":15.22976409,"ECCENTRICITY":0.00021529,"INCLINATION":43.0024,"RA_OF_ASC_NODE":171.6597,"ARG_OF_PERICENTER":311.2907,"MEAN_ANOMALY":48.7758,"EPHEMERIS_TYPE":0,"CLASSIFICATION_TYPE":"U","NORAD_CAT_ID":58592,"ELEMENT_SET_NO":999,"REV_AT_EPOCH":12354,"BSTAR":0.0018691683,"MEAN_MOTION_DOT":0.00044809,"MEAN_MOTION_DDOT":0}]
